OBJECT_NAME,OBJECT_ID,EPOCH,MEAN_MOTION,ECCENTRICITY,INCLINATION,RA_OF_ASC_NODE,ARG_OF_PERICENTER,MEAN_ANOMALY,EPHEMERIS_TYPE,CLASSIFICATION_TYPE,NORAD_CAT_ID,ELEMENT_SET_NO,REV_AT_EPOCH,BSTAR,MEAN_MOTION_DOT,MEAN_MOTION_DDOT
JCSAT-3A,2006-033A,2026-06-27T13:21:38.683008,1.00271815,.0002484,0.0217,305.2629,158.2195,140.5948,0,U,29272,999,4784,0,-.333E-5,0
KOREASAT 5 (MUGUNGWHA 5),2006-034A,2026-06-27T09:37:22.859328,1.00272181,.0001843,1.8109,82.8770,49.2504,40.7914,0,U,29349,999,4142,0,-.348E-5,0
DIRECTV 9S,2006-043A,2026-06-27T12:01:32.109312,1.00271905,.0005422,2.4469,80.7890,19.1880,254.8160,0,U,29494,999,5148,0,-.104E-5,0
OPTUS D1,2006-043B,2026-06-27T11:49:38.537760,1.00270898,.0003739,3.0607,79.5359,9.0108,156.4309,0,U,29495,999,7222,0,-.175E-5,0
BADR-4,2006-051A,2026-06-27T12:40:14.779776,1.00268767,.0005377,2.0309,81.0184,13.0722,46.0691,0,U,29526,999,5137,0,.165E-5,0
WILDBLUE-1,2006-054A,2026-06-27T11:58:39.883008,1.00271213,.0001756,2.8292,80.3614,7.0279,256.6733,0,U,29643,999,5389,0,-.4E-6,0
SKYNET 5A,2007-007B,2026-06-27T02:41:39.612192,1.00271314,.00037056,5.3249,73.6223,27.5478,309.6925,0,U,30794,999,7079,0,-.265E-5,0
ANIK F3,2007-009A,2026-06-27T11:16:12.735840,1.00270591,.0002928,1.2237,83.7436,7.3715,234.8171,0,U,31102,999,4666,0,.1E-6,0
ASTRA 1L,2007-016A,2026-06-27T07:15:24.718752,1.00270436,.0005709,1.3475,81.5136,18.8605,259.3870,0,U,31306,999,4508,0,-.174E-5,0
GALAXY 17 (G-17),2007-016B,2026-06-27T12:06:09.164736,1.00271110,.0004601,2.9975,79.7782,20.3957,271.9658,0,U,31307,999,6990,0,-.197E-5,0
INTELSAT 11 (IS-11),2007-044B,2026-06-27T09:28:08.745024,0.99047724,.0003104,3.5915,78.5532,84.4812,335.4397,0,U,32253,999,6855,0,.43E-6,0
WGS F1 (USA 195),2007-046A,2026-06-27T12:18:15.506208,1.00268795,.0000598,0.0262,75.8836,319.5087,22.2953,0,U,32258,999,5243,0,-.256E-5,0
SKYNET 5B,2007-056B,2026-06-27T07:51:38.611008,1.00271140,.0003429,5.2772,73.3844,26.2211,318.8259,0,U,32294,999,6829,0,.146E-5,0
ASTRA 4A,2007-057A,2026-06-27T12:31:36.725376,1.00271367,.0002641,0.0175,327.4508,128.6731,12.2046,0,U,32299,999,5175,0,.44E-6,0
HORIZONS-2,2007-063B,2026-06-27T12:09:23.855040,1.00271138,.0004166,2.6281,80.5075,7.0792,296.5756,0,U,32388,999,6791,0,-.244E-5,0
THURAYA-3,2008-001A,2026-06-25T16:20:37.371840,1.00009028,.00018904,6.0035,35.8134,142.0341,49.0680,0,U,32404,999,6757,0,.26E-6,0
THOR 5,2008-006A,2026-06-27T07:22:09.074208,1.00271459,.0002725,0.0404,253.1353,205.6726,286.3927,0,U,32487,999,6741,0,.3E-7,0
AMC-14,2008-011A,2026-06-24T02:42:00.534816,1.00356055,.00451778,24.0123,20.4352,7.5191,352.4523,0,U,32708,999,6823,0,-.74E-6,0
DIRECTV 11,2008-013A,2026-06-27T07:52:59.888352,1.00270270,.0000345,0.0116,252.6165,226.3250,175.5588,0,U,32729,999,4569,0,-.114E-5,0
ICO G1,2008-016A,2026-06-27T12:03:54.379872,1.00272567,.0002265,5.5299,36.1039,47.4149,280.2171,0,U,32763,999,6664,0,-.165E-5,0
VINASAT-1,2008-018A,2026-06-27T13:13:38.502912,1.00272509,.0001583,0.0200,311.6554,148.7867,145.5616,0,U,32767,999,6669,0,-.316E-5,0
STAR ONE C2,2008-018B,2026-06-27T12:11:53.614752,1.00270863,.0002982,1.2668,82.3840,23.4289,287.7770,0,U,32768,999,6675,0,-.266E-5,0
AMOS-3,2008-022A,2026-06-27T04:10:17.691168,1.00482497,.0002526,0.4808,86.1107,66.2893,231.8313,0,U,32794,999,8243,0,.119E-5,0
GALAXY 18 (G-18),2008-024A,2026-06-27T11:55:17.707008,1.00270060,.0003248,0.0267,22.3878,77.9284,231.1180,0,U,32951,999,4595,0,0,0
ZHONGXING-9,2008-028A,2026-06-27T11:14:06.991872,1.00271223,.0004095,0.7956,85.2451,355.7270,95.5234,0,U,33051,999,6614,0,-.238E-5,0
SKYNET 5C,2008-030A,2026-06-27T10:42:38.894400,1.00271850,.0004451,3.8146,76.9247,25.9965,315.5067,0,U,33055,999,6605,0,-.132E-5,0
TURKSAT 3A,2008-030B,2026-06-27T12:42:22.077216,1.00268762,.0005614,0.0366,71.0560,5.2494,71.9306,0,U,33056,999,5246,0,.158E-5,0
ECHOSTAR 11,2008-035A,2026-06-27T12:12:44.638272,1.00272079,.0002733,1.0314,84.0837,358.3801,266.5340,0,U,33207,999,5131,0,-.47E-6,0
SUPERBIRD-C2,2008-038A,2026-06-27T13:41:35.086272,1.00272427,.0006509,2.3872,81.1436,28.9316,147.0047,0,U,33274,999,10583,0,-.297E-5,0
INMARSAT 4-F3,2008-039A,2026-06-27T12:02:24.523872,1.00272501,.0002594,4.3017,31.6568,67.4941,259.0646,0,U,33278,999,4664,0,-.133E-5,0
NIMIQ 4,2008-044A,2026-06-27T12:07:01.581024,1.00268389,.0001945,0.0298,43.7188,52.0862,279.6010,0,U,33373,999,6508,0,0,0
GALAXY 19 (G-19),2008-045A,2026-06-27T12:02:39.501312,1.00271269,.0002932,0.0418,260.4541,204.6196,254.2005,0,U,33376,999,6500,0,-.127E-5,0
