JCSAT-3A                
1 29272U 06033A   26178.55669772 -.00000333  00000+0  00000+0 0  9993
2 29272   0.0217 305.2629 0002484 158.2195 140.5948  1.00271815 47849
KOREASAT 5 (MUGUNGWHA 5)
1 29349U 06034A   26178.40095902 -.00000348  00000+0  00000+0 0  9997
2 29349   1.8109  82.8770 0001843  49.2504  40.7914  1.00272181 41428
DIRECTV 9S              
1 29494U 06043A   26178.50106608 -.00000104  00000+0  00000+0 0  9995
2 29494   2.4469  80.7890 0005422  19.1880 254.8160  1.00271905 51486
OPTUS D1                
1 29495U 06043B   26178.49280715 -.00000175  00000+0  00000+0 0  9994
2 29495   3.0607  79.5359 0003739   9.0108 156.4309  1.00270898 72221
BADR-4                  
1 29526U 06051A   26178.52794884  .00000165  00000+0  00000+0 0  9997
2 29526   2.0309  81.0184 0005377  13.0722  46.0691  1.00268767 51378
WILDBLUE-1              
1 29643U 06054A   26178.49907272 -.00000040  00000+0  00000+0 0  9996
2 29643   2.8292  80.3614 0001756   7.0279 256.6733  1.00271213 53899
SKYNET 5A               
1 30794U 07007B   26178.11226403 -.00000265  00000+0  00000+0 0  9992
2 30794   5.3249  73.6223 0003705  27.5478 309.6925  1.00271314 70795
ANIK F3                 
1 31102U 07009A   26178.46959185  .00000010  00000+0  00000+0 0  9993
2 31102   1.2237  83.7436 0002928   7.3715 234.8171  1.00270591 46662
ASTRA 1L                
1 31306U 07016A   26178.30236943 -.00000174  00000+0  00000+0 0  9992
2 31306   1.3475  81.5136 0005709  18.8605 259.3870  1.00270436 45082
GALAXY 17 (G-17)        
1 31307U 07016B   26178.50427274 -.00000197  00000+0  00000+0 0  9999
2 31307   2.9975  79.7782 0004601  20.3957 271.9658  1.00271110 69900
INTELSAT 11 (IS-11)     
1 32253U 07044B   26178.39454566  .00000043  00000+0  00000+0 0  9991
2 32253   3.5915  78.5532 0003104  84.4812 335.4397  0.99047724 68555
WGS F1 (USA 195)        
1 32258U 07046A   26178.51267947 -.00000256  00000+0  00000+0 0  9994
2 32258   0.0262  75.8836 0000598 319.5087  22.2953  1.00268795 52439
SKYNET 5B               
1 32294U 07056B   26178.32753022  .00000146  00000+0  00000+0 0  9995
2 32294   5.2772  73.3844 0003429  26.2211 318.8259  1.00271140 68293
ASTRA 4A                
1 32299U 07057A   26178.52195284  .00000044  00000+0  00000+0 0  9990
2 32299   0.0175 327.4508 0002641 128.6731  12.2046  1.00271367 51750
HORIZONS-2              
1 32388U 07063B   26178.50652610 -.00000244  00000+0  00000+0 0  9998
2 32388   2.6281  80.5075 0004166   7.0792 296.5756  1.00271138 67918
THURAYA-3               
1 32404U 08001A   26176.68098810  .00000026  00000+0  00000+0 0  9990
2 32404   6.0035  35.8134 0001890 142.0341  49.0680  1.00009028 67578
THOR 5                  
1 32487U 08006A   26178.30704947  .00000003  00000+0  00000+0 0  9997
2 32487   0.0404 253.1353 0002725 205.6726 286.3927  1.00271459 67414
AMC-14                  
1 32708U 08011A   26175.11250619 -.00000074  00000+0  00000+0 0  9996
2 32708  24.0123  20.4352 0045177   7.5191 352.4523  1.00356055 68235
DIRECTV 11              
1 32729U 08013A   26178.32847093 -.00000114  00000+0  00000+0 0  9990
2 32729   0.0116 252.6165 0000345 226.3250 175.5588  1.00270270 45694
ICO G1                  
1 32763U 08016A   26178.50271273 -.00000165  00000+0  00000+0 0  9998
2 32763   5.5299  36.1039 0002265  47.4149 280.2171  1.00272567 66642
VINASAT-1               
1 32767U 08018A   26178.55114008 -.00000316  00000+0  00000+0 0  9999
2 32767   0.0200 311.6554 0001583 148.7867 145.5616  1.00272509 66693
STAR ONE C2             
1 32768U 08018B   26178.50825943 -.00000266  00000+0  00000+0 0  9996
2 32768   1.2668  82.3840 0002982  23.4289 287.7770  1.00270863 66754
AMOS-3                  
1 32794U 08022A   26178.17381587  .00000119  00000+0  00000+0 0  9990
2 32794   0.4808  86.1107 0002526  66.2893 231.8313  1.00482497 82432
GALAXY 18 (G-18)        
1 32951U 08024A   26178.49673272  .00000000  00000+0  00000+0 0  9996
2 32951   0.0267  22.3878 0003248  77.9284 231.1180  1.00270060 45956
ZHONGXING-9             
1 33051U 08028A   26178.46813648 -.00000238  00000+0  00000+0 0  9996
2 33051   0.7956  85.2451 0004095 355.7270  95.5234  1.00271223 66146
SKYNET 5C               
1 33055U 08030A   26178.44628350 -.00000132  00000+0  00000+0 0  9998
2 33055   3.8146  76.9247 0004451  25.9965 315.5067  1.00271850 66053
TURKSAT 3A              
1 33056U 08030B   26178.52942219  .00000158  00000+0  00000+0 0  9998
2 33056   0.0366  71.0560 0005614   5.2494  71.9306  1.00268762 52468
ECHOSTAR 11             
1 33207U 08035A   26178.50884998 -.00000047  00000+0  00000+0 0  9996
2 33207   1.0314  84.0837 0002733 358.3801 266.5340  1.00272079 51313
SUPERBIRD-C2            
1 33274U 08038A   26178.57054498 -.00000297  00000+0  00000+0 0  9991
2 33274   2.3872  81.1436 0006509  28.9316 147.0047  1.00272427105830
INMARSAT 4-F3           
1 33278U 08039A   26178.50167273 -.00000133  00000+0  00000+0 0  9994
2 33278   4.3017  31.6568 0002594  67.4941 259.0646  1.00272501 46640
NIMIQ 4                 
1 33373U 08044A   26178.50487941  .00000000  00000+0  00000+0 0  9995
2 33373   0.0298  43.7188 0001945  52.0862 279.6010  1.00268389 65084
GALAXY 19 (G-19)        
1 33376U 08045A   26178.50184608 -.00000127  00000+0  00000+0 0  9994
2 33376   0.0418 260.4541 0002932 204.6196 254.2005  1.00271269 65000
